{
    "links": {
        "self": "http://www.neowsapp.com/rest/v1/neo/2380359?api_key=iIulBulltgU6a56xZRHN4H3l9WmuAYTsLGpBGhQ2"
    },
    "id": "2380359",
    "neo_reference_id": "2380359",
    "name": "380359 (2002 TN30)",
    "designation": "380359",
    "nasa_jpl_url": "http://ssd.jpl.nasa.gov/sbdb.cgi?sstr=2380359",
    "absolute_magnitude_h": 17.0,
    "estimated_diameter": {
        "kilometers": {
            "estimated_diameter_min": 1.0581688593,
            "estimated_diameter_max": 2.3661375011
        },
        "meters": {
            "estimated_diameter_min": 1058.1688593312,
            "estimated_diameter_max": 2366.137501138
        },
        "miles": {
            "estimated_diameter_min": 0.6575154423,
            "estimated_diameter_max": 1.4702492252
        },
        "feet": {
            "estimated_diameter_min": 3471.6827204482,
            "estimated_diameter_max": 7762.9185592335
        }
    },
    "is_potentially_hazardous_asteroid": false,
    "close_approach_data": [
        {
            "close_approach_date": "1996-02-10",
            "close_approach_date_full": "1996-Feb-10 08:22",
            "epoch_date_close_approach": 823940520000,
            "relative_velocity": {
                "kilometers_per_second": "6.2038633349",
                "kilometers_per_hour": "22333.9080054723",
                "miles_per_hour": "13877.4218937336"
            },
            "miss_distance": {
                "astronomical": "0.49391767",
                "lunar": "192.13397363",
                "kilometers": "73889031.3873629",
                "miles": "45912515.11249202"
            },
            "orbiting_body": "Earth"
        },
        {
            "close_approach_date": "2021-02-15",
            "close_approach_date_full": "2021-Feb-15 03:31",
            "epoch_date_close_approach": 1613359860000,
            "relative_velocity": {
                "kilometers_per_second": "7.0503527123",
                "kilometers_per_hour": "25381.2697642087",
                "miles_per_hour": "15770.9339820996"
            },
            "miss_distance": {
                "astronomical": "0.4977277586",
                "lunar": "193.6160980954",
                "kilometers": "74459012.526434182",
                "miles": "46266684.9692364316"
            },
            "orbiting_body": "Earth"
        },
        {
            "close_approach_date": "2117-08-26",
            "close_approach_date_full": "2117-Aug-26 20:59",
            "epoch_date_close_approach": 4659454740000,
            "relative_velocity": {
                "kilometers_per_second": "12.7944898316",
                "kilometers_per_hour": "46060.1633937708",
                "miles_per_hour": "28619.9943043128"
            },
            "miss_distance": {
                "astronomical": "0.0826642461",
                "lunar": "32.1563917329",
                "kilometers": "12366395.141715807",
                "miles": "7684121.6236078566"
            },
            "orbiting_body": "Mars"
        },
        {
            "close_approach_date": "2128-01-23",
            "close_approach_date_full": "2128-Jan-23 21:15",
            "epoch_date_close_approach": 4987948500000,
            "relative_velocity": {
                "kilometers_per_second": "3.5198966164",
                "kilometers_per_hour": "12671.627819206",
                "miles_per_hour": "7873.6567413283"
            },
            "miss_distance": {
                "astronomical": "0.497225841",
                "lunar": "193.420852149",
                "kilometers": "74383926.72255867",
                "miles": "46220028.814182846"
            },
            "orbiting_body": "Earth"
        },
        {
            "close_approach_date": "2153-02-13",
            "close_approach_date_full": "2153-Feb-13 10:43",
            "epoch_date_close_approach": 5778729780000,
            "relative_velocity": {
                "kilometers_per_second": "7.1097664409",
                "kilometers_per_hour": "25595.159187197",
                "miles_per_hour": "15903.8365516225"
            },
            "miss_distance": {
                "astronomical": "0.4913056211",
                "lunar": "191.1178866079",
                "kilometers": "73498274.435587057",
                "miles": "45669710.0016811066"
            },
            "orbiting_body": "Earth"
        }
    ],
    "orbital_data": {
        "orbit_id": "89",
        "orbit_determination_date": "2020-12-08 05:24:36",
        "first_observation_date": "1989-03-08",
        "last_observation_date": "2020-12-07",
        "data_arc_in_days": 11597,
        "observations_used": 411,
        "orbit_uncertainty": "0",
        "minimum_orbit_intersection": ".489402",
        "jupiter_tisserand_invariant": "3.357",
        "epoch_osculation": "2459000.5",
        "eccentricity": ".4474854737605849",
        "semi_major_axis": "2.333379654064313",
        "inclination": "19.84452309228724",
        "ascending_node_longitude": "20.57853512080694",
        "orbital_period": "1301.896732281043",
        "perihelion_distance": "1.289226154102034",
        "perihelion_argument": "91.79894411992245",
        "aphelion_distance": "3.377533154026592",
        "perihelion_time": "2459215.516087673664",
        "mean_anomaly": "300.5438314397664",
        "mean_motion": ".2765196279195253",
        "equinox": "J2000",
        "orbit_class": {
            "orbit_class_type": "AMO",
            "orbit_class_description": "Near-Earth asteroid orbits similar to that of 1221 Amor",
            "orbit_class_range": "1.017 AU < q (perihelion) < 1.3 AU"
        }
    },
    "is_sentry_object": false
}